{"type":"FeatureCollection","source":"geoBoundaries gbOpen UKR ADM1 (CC BY 4.0)","features":[{"type":"Feature","properties":{"name":"Kherson Oblast"},"geometry":{"type":"Polygon","coordinates":[[[35.2334,45.7917],[35.2263,45.8174],[35.2152,45.8402],[35.1998,45.8617],[35.1739,45.8873],[35.1661,45.9069],[35.151,45.9315],[35.1924,45.9349],[35.2419,45.9454],[35.2874,45.9624],[35.3274,45.9853],[35.3501,46.0033],[35.3692,46.0233],[35.3844,46.0448],[35.3912,46.0576],[35.4222,46.0811],[35.4414,46.101],[35.4566,46.1225],[35.468,46.1465],[35.3757,46.1945],[35.2781,46.2646],[35.2535,46.2711],[35.2274,46.2812],[35.1695,46.2944],[35.1282,46.3021],[35.0956,46.3017],[35.0735,46.2999],[35.0673,46.329],[35.0693,46.3302],[35.0659,46.3359],[35.0583,46.3755],[35.0675,46.3765],[35.071,46.3798],[35.0535,46.4816],[35.0222,46.4793],[34.9531,46.5038],[34.9484,46.5035],[34.9472,46.5125],[34.8904,46.5068],[34.8851,46.5367],[34.895,46.5376],[34.8912,46.5626],[34.7576,46.5493],[34.7483,46.5842],[34.7233,46.5815],[34.7128,46.6201],[34.7563,46.627],[34.7462,46.6832],[34.6851,46.677],[34.6836,46.6773],[34.6808,46.692],[34.6322,46.6876],[34.6252,46.724],[34.6613,46.7272],[34.6587,46.7403],[34.735,46.7473],[34.7352,46.7571],[34.7505,46.7579],[34.7501,46.7805],[34.7676,46.7809],[34.7581,46.8227],[34.817,46.8289],[34.8127,46.8336],[34.8047,46.8825],[34.7526,46.8795],[34.7362,46.9615],[34.6855,46.9559],[34.681,46.9791],[34.6543,46.9766],[34.6426,46.9741],[34.6238,46.9734],[34.6206,46.9882],[34.6175,46.9933],[34.5996,46.9918],[34.5917,47.0268],[34.5673,47.0245],[34.5535,47.106],[34.5195,47.1047],[34.491,47.2406],[34.4909,47.2468],[34.5301,47.2508],[34.5272,47.2674],[34.5236,47.2672],[34.5182,47.2835],[34.4878,47.2799],[34.4805,47.3078],[34.4794,47.3151],[34.5138,47.3181],[34.5147,47.3226],[34.5132,47.3244],[34.5086,47.3254],[34.5088,47.3277],[34.5162,47.3332],[34.5159,47.3362],[34.5121,47.3387],[34.5046,47.3401],[34.5004,47.3385],[34.4984,47.335],[34.492,47.3323],[34.4135,47.3233],[34.4188,47.3009],[34.3987,47.2984],[34.4012,47.2872],[34.3696,47.2836],[34.3576,47.2934],[34.3291,47.2907],[34.3053,47.2691],[34.3023,47.273],[34.2997,47.2722],[34.293,47.2743],[34.2826,47.3177],[34.2818,47.3241],[34.2834,47.3263],[34.2712,47.3622],[34.26,47.3606],[34.2529,47.3911],[34.2564,47.3942],[34.253,47.4095],[34.2427,47.4339],[34.2301,47.446],[34.2185,47.4527],[34.17,47.4691],[34.1395,47.4772],[34.0608,47.4686],[34.0033,47.4566],[33.997,47.4595],[33.987,47.4579],[33.9778,47.4593],[33.9548,47.4576],[33.9513,47.4616],[33.9467,47.5013],[33.9421,47.5083],[33.9408,47.5148],[33.9348,47.5163],[33.9067,47.5118],[33.6436,47.4845],[33.636,47.5141],[33.6037,47.5104],[33.605,47.5042],[33.5884,47.5023],[33.5804,47.5325],[33.5715,47.5242],[33.5873,47.541],[33.5925,47.5444],[33.5887,47.5582],[33.6091,47.5609],[33.6055,47.575],[33.5923,47.5737],[33.5881,47.5887],[33.5838,47.5882],[33.5803,47.6002],[33.4737,47.5873],[33.4861,47.5439],[33.3265,47.5231],[33.3227,47.5236],[33.3301,47.5101],[33.3488,47.4937],[33.3143,47.4825],[33.3072,47.4862],[33.3137,47.4886],[33.315,47.4907],[33.31,47.5016],[33.2963,47.504],[33.2792,47.5168],[33.2788,47.52],[33.2865,47.5255],[33.2885,47.5317],[33.288,47.5419],[33.2856,47.5441],[33.2793,47.5461],[33.2731,47.5461],[33.262,47.5409],[33.2558,47.5359],[33.2418,47.5304],[33.2314,47.5294],[33.2285,47.5312],[33.2226,47.5305],[33.2154,47.533],[33.2151,47.5343],[33.2218,47.5396],[33.2216,47.5446],[33.2181,47.5484],[33.23,47.555],[33.236,47.5631],[33.2374,47.5717],[33.234,47.5771],[33.2301,47.5777],[33.2261,47.5737],[33.2085,47.5695],[33.1981,47.5696],[33.1849,47.5728],[33.1719,47.5667],[33.0927,47.5788],[33.0889,47.5522],[33.095,47.5276],[33.1413,47.5445],[33.1417,47.5435],[33.1469,47.5146],[33.1232,47.5079],[33.1301,47.4825],[33.1254,47.4763],[33.131,47.4579],[33.1378,47.4195],[33.0716,47.4124],[33.0705,47.4748],[33.0668,47.4749],[33.0473,47.4685],[33.0539,47.4441],[33.0341,47.4416],[33.0372,47.4259],[33.0293,47.4229],[33.0359,47.3912],[33.0393,47.3797],[33.1221,47.3901],[33.1322,47.3456],[33.1373,47.3337],[33.1332,47.3323],[33.1306,47.3286],[33.1029,47.3223],[33.1108,47.301],[33.1099,47.2969],[33.1115,47.2939],[33.1021,47.2907],[33.1052,47.2805],[33.1185,47.282],[33.1202,47.2777],[33.1395,47.2723],[33.1362,47.2678],[33.1828,47.2386],[33.1759,47.238],[33.172,47.2341],[33.1662,47.2341],[33.1626,47.232],[33.1596,47.2331],[33.1636,47.2353],[33.1621,47.2366],[33.1526,47.2349],[33.1445,47.2304],[33.1336,47.233],[33.1282,47.2313],[33.127,47.2236],[33.1295,47.218],[33.1337,47.2132],[33.1429,47.2098],[33.1385,47.2063],[33.1296,47.2028],[33.1176,47.204],[33.1101,47.2072],[33.1042,47.2131],[33.1052,47.2165],[33.0971,47.2237],[33.0883,47.2232],[33.0804,47.22],[33.0721,47.2234],[33.0741,47.2176],[33.0675,47.2201],[33.0655,47.2189],[33.0662,47.2008],[33.0547,47.1921],[33.0362,47.1875],[33.0357,47.1824],[33.0386,47.1784],[33.0367,47.1777],[33.0254,47.1765],[33.0144,47.1805],[33.0119,47.1841],[33.0131,47.1877],[33.0114,47.1913],[33.0052,47.1963],[33.0004,47.1956],[33.0006,47.1928],[33.0042,47.191],[33.0023,47.1894],[32.9952,47.1918],[32.9895,47.1898],[32.9908,47.1938],[32.9889,47.1939],[32.9813,47.1914],[32.9614,47.1896],[32.9607,47.1845],[32.9474,47.1621],[32.9313,47.1499],[32.92,47.1461],[32.9179,47.1434],[32.9192,47.133],[32.9111,47.1268],[32.9068,47.1206],[32.9124,47.1146],[32.9146,47.1053],[32.9109,47.0995],[32.9103,47.0939],[32.9167,47.0872],[32.9239,47.0858],[32.9305,47.0804],[33.0686,47.0222],[33.0228,46.9729],[32.9497,47.0032],[32.934,46.9863],[32.9418,46.9738],[32.9497,46.9465],[32.9756,46.9491],[32.9795,46.9335],[32.9217,46.9267],[32.9261,46.9107],[32.9246,46.9101],[32.8415,46.9],[32.8392,46.8963],[32.8421,46.8945],[32.8419,46.8919],[32.836,46.8846],[32.8409,46.882],[32.8564,46.877],[32.9153,46.8833],[32.9199,46.8661],[32.9463,46.8687],[32.9491,46.8579],[32.8716,46.8468],[32.8136,46.8401],[32.8148,46.8346],[32.7762,46.8311],[32.7794,46.8249],[32.7716,46.8208],[32.7675,46.8206],[32.7646,46.828],[32.7485,46.826],[32.7429,46.8279],[32.7014,46.8208],[32.6979,46.8226],[32.6879,46.8621],[32.6175,46.8544],[32.615,46.8544],[32.6152,46.856],[32.6111,46.8588],[32.5855,46.8558],[32.5836,46.8596],[32.5786,46.8591],[32.5775,46.8632],[32.5718,46.8632],[32.5705,46.8726],[32.5467,46.8694],[32.5443,46.8832],[32.5338,46.8815],[32.5417,46.8502],[32.5261,46.8484],[32.532,46.8238],[32.4693,46.8166],[32.4633,46.8404],[32.4191,46.8364],[32.3654,46.8293],[32.3729,46.7991],[32.3416,46.7954],[32.3147,46.806],[32.2275,46.8452],[32.2314,46.8387],[32.2522,46.8196],[32.2304,46.8085],[32.2097,46.8057],[32.2187,46.7713],[32.169,46.7635],[32.1715,46.7523],[32.1118,46.7451],[32.1089,46.7525],[32.0572,46.7446],[32.0609,46.728],[32.0757,46.73],[32.087,46.6835],[32.0719,46.6819],[32.0714,46.6837],[32.0207,46.6775],[32.0307,46.6689],[31.9874,46.6641],[31.989,46.6592],[31.9402,46.651],[31.8457,46.4979],[31.8327,46.4999],[31.8188,46.4955],[31.8144,46.4926],[31.8072,46.479],[31.8306,46.3533],[31.3815,46.4076],[31.1591,46.4097],[31.1999,46.4044],[31.2373,46.4032],[31.2336,46.3872],[31.2318,46.3597],[31.2354,46.3324],[31.2396,46.318],[31.2397,46.2838],[31.2461,46.2567],[31.2512,46.2434],[31.2654,46.2176],[31.2846,46.1935],[31.2959,46.1821],[31.3217,46.1612],[31.3436,46.1473],[31.379,46.1167],[31.4087,46.0984],[31.4248,46.0903],[31.4593,46.0765],[31.4962,46.0661],[31.5368,46.059],[31.5784,46.0444],[31.6162,46.0357],[31.6554,46.0307],[31.6802,46.0296],[31.7062,46.0225],[31.7448,46.0157],[31.7645,46.0137],[31.8036,46.0124],[31.8454,46.0026],[31.8925,45.9971],[31.9107,45.9903],[31.9476,45.9799],[31.9985,45.9718],[32.0239,45.9619],[32.0608,45.9515],[32.0994,45.9446],[32.143,45.9415],[32.1649,45.9344],[32.2027,45.9258],[32.2476,45.9205],[32.2749,45.9097],[32.3117,45.8993],[32.3503,45.8924],[32.3775,45.89],[32.409,45.8794],[32.4468,45.8707],[32.4859,45.8657],[32.5279,45.8646],[32.5791,45.8517],[32.6182,45.8467],[32.6626,45.8457],[32.7141,45.8327],[32.7335,45.8298],[32.7727,45.8266],[33.1867,45.9267],[33.5407,46.012],[33.5912,46.0612],[33.5721,46.1026],[33.6148,46.1347],[33.6413,46.1424],[33.6356,46.1463],[33.6152,46.2262],[33.6459,46.2302],[33.6655,46.2213],[33.6855,46.2064],[33.6996,46.2029],[33.74,46.1852],[33.7503,46.1877],[33.7726,46.1976],[33.7969,46.203],[33.8113,46.2038],[33.8487,46.1997],[33.8613,46.1945],[33.9051,46.1654],[33.9185,46.1583],[33.9847,46.1347],[33.9982,46.1265],[34.0526,46.1091],[34.0695,46.1167],[34.0809,46.1176],[34.1175,46.1073],[34.1314,46.1002],[34.145,46.0867],[34.1844,46.0669],[34.2478,46.0532],[34.3295,46.0606],[34.3396,46.0579],[34.3472,46.0549],[34.405,46.0093],[34.4108,45.9993],[34.4132,45.9897],[34.4369,45.9667],[34.4572,45.9524],[34.4762,45.9441],[34.4869,45.9424],[34.4984,45.9429],[34.5109,45.948],[34.527,45.959],[34.5444,45.9761],[34.5448,45.979],[34.5542,45.9905],[34.5612,45.9944],[34.5816,45.9957],[34.6011,45.9942],[34.6285,45.9864],[34.655,45.9755],[34.6699,45.9676],[34.754,45.9088],[34.8022,45.9006],[34.7991,45.8105],[34.8762,45.7904],[34.9412,45.7658],[34.9598,45.7566],[34.9751,45.762],[35.2334,45.7917]]]}},{"type":"Feature","properties":{"name":"Luhansk Oblast"},"geometry":{"type":"Polygon","coordinates":[[[37.8744,49.2339],[37.8734,49.2232],[37.8898,49.2189],[37.8903,49.2119],[37.9175,49.2154],[37.9333,49.2208],[37.9427,49.2141],[37.9197,49.2064],[37.9237,49.2059],[37.935,49.1918],[37.914,49.1866],[37.9072,49.1836],[37.906,49.1806],[37.8931,49.1747],[37.9027,49.1665],[37.8934,49.1605],[37.9265,49.1438],[37.9444,49.1391],[37.9563,49.1429],[37.9607,49.1358],[37.9749,49.1348],[37.9807,49.1306],[38.0404,49.1267],[38.0442,49.1505],[38.0669,49.1466],[38.0816,49.148],[38.0838,49.1345],[38.068,49.0966],[38.0617,49.0632],[38.0531,49.0589],[38.073,49.0399],[38.0979,48.9988],[38.0989,48.9923],[38.0804,48.9922],[38.0551,48.9865],[38.0509,48.9823],[38.0578,48.9757],[38.0524,48.9716],[38.054,48.9649],[38.0302,48.9742],[38.0052,48.9466],[38.037,48.9434],[38.0383,48.9253],[38.0469,48.9367],[38.0542,48.9397],[38.0631,48.9368],[38.0926,48.9391],[38.0954,48.9343],[38.1144,48.9317],[38.1174,48.9267],[38.1247,48.9266],[38.1311,48.9239],[38.1357,48.9249],[38.1392,48.9311],[38.1434,48.9323],[38.1964,48.928],[38.2174,48.9325],[38.2279,48.9368],[38.2289,48.8585],[38.2214,48.8396],[38.2597,48.8423],[38.2681,48.8362],[38.2727,48.8248],[38.3135,48.8283],[38.3183,48.806],[38.2788,48.8026],[38.2826,48.7738],[38.2751,48.773],[38.263,48.7502],[38.2675,48.7491],[38.2831,48.7373],[38.3156,48.7347],[38.3213,48.7317],[38.3241,48.726],[38.3253,48.7142],[38.3043,48.7123],[38.3065,48.7088],[38.315,48.7045],[38.3144,48.6958],[38.3073,48.6878],[38.314,48.6869],[38.315,48.6847],[38.306,48.6821],[38.3042,48.6835],[38.2832,48.6813],[38.2877,48.6652],[38.2672,48.6641],[38.2686,48.6689],[38.2593,48.6675],[38.2598,48.6553],[38.2536,48.6551],[38.2521,48.6578],[38.2389,48.6568],[38.2388,48.6548],[38.2258,48.6525],[38.2289,48.634],[38.2637,48.6367],[38.2795,48.546],[38.2735,48.5454],[38.2787,48.5415],[38.2762,48.5406],[38.2819,48.5352],[38.285,48.5368],[38.3201,48.5089],[38.3114,48.5058],[38.312,48.4985],[38.3068,48.4973],[38.3035,48.4945],[38.2985,48.4952],[38.2976,48.491],[38.3066,48.4847],[38.3016,48.485],[38.305,48.4749],[38.3037,48.4742],[38.2975,48.4784],[38.2963,48.4763],[38.2882,48.4767],[38.32,48.4651],[38.3114,48.4556],[38.342,48.4386],[38.3435,48.4379],[38.3512,48.4417],[38.3567,48.4412],[38.3608,48.4432],[38.3715,48.443],[38.3761,48.4415],[38.3823,48.4296],[38.4024,48.4347],[38.4008,48.44],[38.4332,48.4477],[38.4346,48.4377],[38.4323,48.4351],[38.4394,48.4175],[38.4366,48.3961],[38.4501,48.3759],[38.4534,48.3811],[38.4686,48.3791],[38.4729,48.3675],[38.4788,48.3674],[38.4888,48.3644],[38.4984,48.3656],[38.4969,48.363],[38.471,48.36],[38.4735,48.3561],[38.471,48.3553],[38.472,48.3501],[38.4698,48.3491],[38.4636,48.352],[38.4618,48.3502],[38.4637,48.3485],[38.4557,48.3468],[38.4564,48.3426],[38.4334,48.3393],[38.437,48.3232],[38.4394,48.3235],[38.4411,48.3165],[38.4346,48.3147],[38.4282,48.3083],[38.428,48.3031],[38.4333,48.2996],[38.4338,48.2972],[38.4282,48.2935],[38.4274,48.2905],[38.4295,48.2901],[38.425,48.2881],[38.4284,48.2843],[38.4261,48.2813],[38.427,48.2783],[38.5211,48.273],[38.521,48.2786],[38.524,48.2785],[38.5245,48.2727],[38.567,48.2701],[38.5747,48.2676],[38.5878,48.2582],[38.5912,48.2517],[38.5878,48.2431],[38.5896,48.2396],[38.5876,48.2383],[38.5883,48.2345],[38.5903,48.2344],[38.5886,48.2328],[38.5891,48.2274],[38.5986,48.2147],[38.6134,48.2043],[38.6108,48.1966],[38.6083,48.1946],[38.6115,48.1928],[38.6113,48.1909],[38.6038,48.1881],[38.5981,48.18],[38.6026,48.1754],[38.6025,48.1723],[38.6376,48.1613],[38.6406,48.1631],[38.6712,48.1641],[38.6663,48.1581],[38.6791,48.1569],[38.6937,48.1577],[38.6892,48.1504],[38.6894,48.1476],[38.6965,48.1455],[38.6974,48.1483],[38.6985,48.1453],[38.7024,48.144],[38.7024,48.1464],[38.7045,48.1449],[38.7151,48.1448],[38.7168,48.142],[38.7219,48.1393],[38.7373,48.1346],[38.7454,48.1346],[38.7567,48.1317],[38.7623,48.1323],[38.7657,48.1304],[38.7663,48.1322],[38.7741,48.127],[38.7801,48.1302],[38.7808,48.1259],[38.7896,48.1242],[38.798,48.1189],[38.8106,48.1191],[38.8121,48.117],[38.8204,48.1162],[38.8067,48.0883],[38.8175,48.0843],[38.8087,48.078],[38.8042,48.0784],[38.7995,48.0747],[38.804,48.0713],[38.8032,48.0703],[38.8179,48.0659],[38.8241,48.0743],[38.8293,48.0774],[38.8268,48.0692],[38.8298,48.0684],[38.8268,48.0657],[38.8305,48.0634],[38.8273,48.0606],[38.8315,48.0579],[38.8219,48.0573],[38.8213,48.0517],[38.8152,48.0509],[38.8127,48.0479],[38.8195,48.0424],[38.8213,48.043],[38.8256,48.038],[38.8214,48.0359],[38.8254,48.0298],[38.8541,48.0204],[38.8613,48.0148],[39.0398,48.0069],[39.0435,47.9887],[39.0385,47.9564],[39.046,47.9562],[39.0479,47.9539],[39.053,47.9547],[39.0507,47.9509],[39.0551,47.9503],[39.057,47.9468],[39.0656,47.9491],[39.0665,47.9513],[39.0696,47.95],[39.0738,47.9529],[39.084,47.9409],[39.0914,47.941],[39.0652,47.896],[39.0745,47.8695],[39.0831,47.8695],[39.0831,47.8516],[39.1095,47.8517],[39.1095,47.8427],[39.1496,47.8424],[39.1499,47.8515],[39.1623,47.8516],[39.1719,47.8462],[39.181,47.8537],[39.2365,47.8536],[39.2339,47.8599],[39.2368,47.8609],[39.2369,47.8646],[39.2417,47.8671],[39.3514,47.8669],[39.3484,47.8714],[39.3542,47.8726],[39.3873,47.8712],[39.4132,47.8297],[39.422,47.8332],[39.4264,47.8369],[39.4394,47.8402],[39.4332,47.8444],[39.44,47.8548],[39.446,47.8555],[39.4455,47.8526],[39.4486,47.8519],[39.4648,47.8595],[39.4721,47.859],[39.4778,47.8607],[39.5209,47.8257],[39.535,47.8328],[39.5425,47.8251],[39.5606,47.8328],[39.5655,47.8364],[39.6217,47.8364],[39.6257,47.8391],[39.6451,47.8364],[39.6522,47.833],[39.738,47.8278],[39.7567,47.8468],[39.7632,47.8463],[39.7634,47.8707],[39.791,47.8689],[39.7949,47.8704],[39.7936,47.9194],[39.8011,47.9265],[39.8021,47.9347],[39.8065,47.9348],[39.8061,47.9505],[39.8217,47.9508],[39.8248,47.9553],[39.8224,47.9561],[39.8234,47.9586],[39.8215,47.9601],[39.8179,47.9606],[39.817,47.9665],[39.819,47.9675],[39.816,47.968],[39.8179,47.9747],[39.8215,47.9769],[39.8231,47.9812],[39.8223,47.9831],[39.8162,47.9835],[39.815,47.9857],[39.8152,47.9892],[39.8186,47.9903],[39.8164,47.9908],[39.816,47.9931],[39.8178,47.9947],[39.8128,47.9973],[39.8165,48.0013],[39.8097,48.0029],[39.8105,48.0046],[39.8039,48.0057],[39.8027,48.0077],[39.8003,48.007],[39.7911,48.0122],[39.7866,48.0209],[39.7835,48.0227],[39.7854,48.0252],[39.7833,48.0258],[39.7842,48.0282],[39.7769,48.0399],[39.8834,48.0416],[39.8835,48.049],[39.8477,48.0591],[39.834,48.067],[39.8689,48.0792],[39.8742,48.109],[39.8705,48.1166],[39.8765,48.1189],[39.8892,48.1306],[39.8975,48.1341],[39.9025,48.1403],[39.9067,48.1488],[39.9068,48.1684],[39.9098,48.1798],[39.925,48.1819],[39.937,48.181],[39.942,48.2286],[39.9549,48.2288],[40.0037,48.2236],[40.0096,48.2251],[40.0065,48.242],[40.0208,48.2539],[40.013,48.2662],[40.016,48.2669],[40.0141,48.2703],[40.0104,48.2702],[39.993,48.3007],[39.9928,48.314],[39.9903,48.3171],[39.9786,48.3156],[39.9722,48.3128],[39.9711,48.3072],[39.9658,48.3065],[39.9632,48.3031],[39.9568,48.3013],[39.9559,48.3036],[39.9518,48.3034],[39.9484,48.2945],[39.9442,48.2919],[39.9373,48.2919],[39.9354,48.2842],[39.9303,48.283],[39.9348,48.2792],[39.9288,48.2774],[39.9252,48.2715],[39.915,48.2696],[39.9147,48.2719],[39.9103,48.2715],[39.9153,48.2823],[39.9123,48.2845],[39.9104,48.2926],[39.9006,48.3001],[39.8881,48.3022],[39.8876,48.3085],[39.8525,48.3086],[39.8412,48.3101],[39.8408,48.329],[39.8451,48.3295],[39.8453,48.3329],[39.8615,48.3345],[39.879,48.3341],[39.9186,48.3416],[39.9186,48.3471],[39.9321,48.3491],[39.9424,48.3462],[39.9474,48.3547],[39.9421,48.3548],[39.943,48.3561],[39.9413,48.3565],[39.9445,48.3577],[39.9349,48.3617],[39.9323,48.3646],[39.9368,48.3675],[39.9356,48.373],[39.9421,48.3821],[39.9415,48.3863],[39.9376,48.3867],[39.9292,48.3755],[39.924,48.3752],[39.9179,48.3787],[39.914,48.3869],[39.9057,48.3904],[39.9069,48.3925],[39.9165,48.3944],[39.9185,48.3989],[39.9147,48.4014],[39.9069,48.4028],[39.9056,48.4045],[39.9114,48.4134],[39.9117,48.4199],[39.8962,48.4288],[39.8889,48.442],[39.8914,48.4437],[39.896,48.444],[39.8976,48.4473],[39.8897,48.4494],[39.8747,48.4571],[39.8588,48.4631],[39.8528,48.4664],[39.8464,48.4738],[39.8472,48.5016],[39.8526,48.5034],[39.8566,48.5014],[39.8615,48.5018],[39.8665,48.5048],[39.8673,48.5078],[39.8619,48.5243],[39.8552,48.537],[39.8572,48.5445],[39.8527,48.5538],[39.8553,48.5609],[39.8504,48.5679],[39.8414,48.573],[39.8209,48.5786],[39.8259,48.5827],[39.8236,48.5865],[39.8133,48.5839],[39.8073,48.5843],[39.7996,48.59],[39.7916,48.593],[39.7735,48.5923],[39.7692,48.5873],[39.7524,48.582],[39.7504,48.5832],[39.7508,48.5884],[39.7475,48.5906],[39.7362,48.586],[39.7255,48.5866],[39.7214,48.5849],[39.7019,48.5876],[39.6879,48.5868],[39.683,48.5926],[39.6804,48.5925],[39.6786,48.59],[39.6761,48.5914],[39.6755,48.5941],[39.6801,48.5958],[39.6796,48.5976],[39.6768,48.5982],[39.6718,48.5955],[39.6693,48.5962],[39.6682,48.6013],[39.6713,48.6039],[39.6618,48.6057],[39.6606,48.6091],[39.6702,48.6234],[39.6938,48.6367],[39.6939,48.6429],[39.6913,48.6459],[39.6937,48.6493],[39.7027,48.6535],[39.7053,48.6565],[39.7109,48.6551],[39.7097,48.6621],[39.7114,48.6672],[39.7037,48.6667],[39.7018,48.6695],[39.7121,48.6747],[39.7144,48.6803],[39.7233,48.6839],[39.7169,48.6898],[39.7184,48.6932],[39.7159,48.6952],[39.7202,48.6976],[39.7184,48.7023],[39.7119,48.7009],[39.7051,48.706],[39.7076,48.7121],[39.7121,48.712],[39.7123,48.7155],[39.7074,48.7172],[39.7043,48.7205],[39.7062,48.7215],[39.7092,48.7201],[39.7101,48.7242],[39.7157,48.7278],[39.7207,48.7285],[39.7206,48.7254],[39.7229,48.7253],[39.7267,48.7289],[39.7228,48.7314],[39.7252,48.7405],[39.7312,48.7418],[39.7337,48.7452],[39.7369,48.7433],[39.7395,48.7437],[39.7389,48.7475],[39.7339,48.7526],[39.7303,48.7509],[39.7309,48.7483],[39.7267,48.7499],[39.7256,48.7524],[39.7321,48.7551],[39.7308,48.7592],[39.7358,48.7598],[39.7379,48.7657],[39.7454,48.7674],[39.7437,48.7702],[39.751,48.7727],[39.7533,48.7706],[39.7495,48.7672],[39.7551,48.7681],[39.7609,48.7639],[39.7649,48.7639],[39.7683,48.7658],[39.7683,48.7698],[39.7638,48.771],[39.763,48.7734],[39.7667,48.7794],[39.7721,48.7838],[39.7791,48.7854],[39.7837,48.7917],[39.7856,48.7999],[39.78,48.8072],[39.7801,48.8121],[39.7872,48.8178],[39.7851,48.8224],[39.7863,48.8248],[39.7922,48.8226],[39.7975,48.8244],[39.7944,48.828],[39.7916,48.8284],[39.7916,48.8359],[39.7961,48.8375],[39.8001,48.8426],[39.805,48.8436],[39.8083,48.8399],[39.8071,48.8386],[39.8279,48.8311],[39.8299,48.8338],[39.8867,48.8208],[39.9482,48.7958],[39.9609,48.796],[39.9755,48.793],[40.0801,48.8701],[40.0725,48.8744],[40.0584,48.9041],[40.061,48.9089],[40.0559,48.9106],[40.0482,48.9103],[40.0449,48.9125],[40.0453,48.9144],[40.0399,48.9149],[40.0367,48.9131],[40.0351,48.9159],[40.0292,48.9151],[40.0273,48.9131],[40.0295,48.912],[40.0256,48.912],[40.0237,48.9098],[40.0198,48.9094],[40.0215,48.9059],[40.0175,48.9022],[40.004,48.9013],[39.9932,48.8682],[39.9621,48.8721],[39.9492,48.8763],[39.9447,48.8796],[39.942,48.885],[39.925,48.8958],[39.8762,48.892],[39.8754,48.8931],[39.8718,48.8917],[39.8524,48.8905],[39.8453,48.9029],[39.8423,48.901],[39.8394,48.9031],[39.8338,48.9007],[39.8362,48.895],[39.8327,48.8881],[39.827,48.8865],[39.8249,48.8921],[39.8182,48.8965],[39.8244,48.9017],[39.823,48.9043],[39.8188,48.9055],[39.8182,48.9077],[39.8157,48.9079],[39.8046,48.9147],[39.7981,48.914],[39.7972,48.9108],[39.7943,48.9108],[39.7929,48.9151],[39.7822,48.9154],[39.7765,48.9207],[39.774,48.9245],[39.7789,48.9264],[39.7786,48.9309],[39.7818,48.9347],[39.7811,48.9369],[39.7765,48.9384],[39.772,48.9433],[39.7738,48.9496],[39.7784,48.9519],[39.77,48.9531],[39.7645,48.9581],[39.7666,48.9607],[39.7629,48.9612],[39.763,48.9629],[39.7606,48.9638],[39.764,48.9676],[39.757,48.9677],[39.7568,48.97],[39.7605,48.9715],[39.7586,48.9755],[39.7521,48.9762],[39.7493,48.9779],[39.7487,48.982],[39.7529,48.9859],[39.7457,48.9869],[39.7355,48.9823],[39.7301,48.9765],[39.7265,48.9757],[39.7242,48.9797],[39.7218,48.9794],[39.7168,48.9824],[39.7166,48.9867],[39.7113,48.9919],[39.7077,48.9927],[39.7083,48.995],[39.7039,48.9992],[39.6991,49.0009],[39.6931,48.9993],[39.6921,48.9969],[39.6783,48.9891],[39.6637,49.0009],[39.674,49.0056],[39.6781,49.0134],[39.674,49.0144],[39.6728,49.0167],[39.6771,49.0221],[39.6771,49.0271],[39.6828,49.03],[39.6808,49.0333],[39.6851,49.0339],[39.6818,49.038],[39.6787,49.0364],[39.6724,49.0404],[39.6932,49.0505],[39.7416,49.042],[39.7664,49.0401],[39.7766,49.0436],[39.8052,49.0599],[39.8112,49.0604],[39.8173,49.058],[39.8802,49.0643],[39.9101,49.0574],[39.938,49.0564],[39.9423,49.0715],[39.9383,49.083],[39.9588,49.1057],[39.9715,49.1238],[40.0311,49.1798],[40.0774,49.187],[40.0935,49.203],[40.1088,49.2117],[40.123,49.2308],[40.1373,49.2398],[40.1767,49.2374],[40.1878,49.2384],[40.2081,49.242],[40.2213,49.2499],[40.2276,49.2605],[40.1859,49.2812],[40.1835,49.299],[40.1858,49.3037],[40.1841,49.3045],[40.1876,49.3089],[40.195,49.3362],[40.1946,49.3465],[40.1813,49.352],[40.1755,49.3564],[40.1689,49.3567],[40.1587,49.3669],[40.1609,49.3664],[40.1623,49.3681],[40.1583,49.3714],[40.1557,49.3707],[40.1541,49.3715],[40.1558,49.3726],[40.1433,49.3784],[40.1144,49.3857],[40.0783,49.4099],[40.0586,49.4366],[40.0475,49.4451],[40.0293,49.4536],[40.0419,49.4986],[40.0376,49.5166],[40.0392,49.5207],[40.1696,49.5688],[40.1394,49.5959],[40.1354,49.6171],[40.065,49.599],[40.0576,49.6069],[39.9521,49.5971],[39.9346,49.5734],[39.8912,49.5583],[39.8685,49.5597],[39.8397,49.5638],[39.806,49.558],[39.7767,49.5774],[39.7503,49.5974],[39.7143,49.6063],[39.697,49.6048],[39.6869,49.6118],[39.6603,49.6149],[39.6579,49.6167],[39.6388,49.6345],[39.6138,49.6907],[39.5913,49.7183],[39.6105,49.7337],[39.5449,49.7391],[39.4787,49.7566],[39.4437,49.76],[39.4337,49.7593],[39.4143,49.7538],[39.3788,49.7385],[39.3578,49.7411],[39.3086,49.7528],[39.2852,49.7554],[39.2736,49.7682],[39.2651,49.7679],[39.2509,49.7765],[39.2378,49.7988],[39.2277,49.8074],[39.2305,49.811],[39.2282,49.816],[39.2267,49.8398],[39.2021,49.87],[39.1955,49.8733],[39.1888,49.885],[39.1799,49.8888],[39.1307,49.8616],[39.1105,49.8379],[39.0707,49.8193],[39.0668,49.8156],[39.0485,49.8184],[39.0322,49.8227],[39.022,49.8216],[38.9854,49.8083],[38.9711,49.8071],[38.9491,49.796],[38.9389,49.8008],[38.9302,49.797],[38.9267,49.8008],[38.9276,49.8043],[38.9206,49.8049],[38.9159,49.8125],[38.9183,49.8147],[38.9095,49.8196],[38.9067,49.8278],[38.9134,49.8297],[38.9139,49.8322],[38.9108,49.8346],[38.9136,49.8365],[38.9121,49.844],[38.9065,49.8451],[38.9045,49.8492],[38.9103,49.8519],[38.9116,49.8561],[38.9159,49.8559],[38.9184,49.8586],[38.9165,49.8599],[38.911,49.8591],[38.9083,49.8601],[38.9012,49.8693],[38.8964,49.8706],[38.8874,49.8691],[38.879,49.8697],[38.872,49.8653],[38.8704,49.8669],[38.8632,49.8659],[38.8566,49.8689],[38.8516,49.8647],[38.8478,49.8644],[38.8471,49.8672],[38.8417,49.8656],[38.836,49.8683],[38.8308,49.8755],[38.824,49.8784],[38.7956,49.8834],[38.791,49.8784],[38.7812,49.8823],[38.7688,49.8961],[38.7448,49.8974],[38.7338,49.9054],[38.7241,49.9271],[38.694,49.9349],[38.686,49.9622],[38.7107,49.9802],[38.7181,49.9835],[38.7093,49.9912],[38.7031,49.9929],[38.7024,49.9967],[38.687,50.0077],[38.6801,50.0062],[38.6779,49.9988],[38.6798,49.9741],[38.6674,49.9723],[38.6475,49.9559],[38.6307,49.9663],[38.6115,49.9756],[38.5826,49.9775],[38.5667,49.971],[38.5273,49.9586],[38.5098,49.9632],[38.4887,49.9632],[38.4827,49.9705],[38.4832,49.9772],[38.4786,49.9832],[38.465,49.983],[38.4693,49.9953],[38.4341,50.0014],[38.4163,49.9818],[38.3974,49.9917],[38.3505,50.0069],[38.3538,50.019],[38.3512,50.0358],[38.333,50.0595],[38.3296,50.0854],[38.3142,50.0882],[38.3018,50.0871],[38.2916,50.0797],[38.2758,50.0735],[38.2525,50.0728],[38.1782,50.08],[38.1848,50.0557],[38.1835,50.0463],[38.1873,50.0408],[38.1889,50.0237],[38.1862,50.0228],[38.1976,50.0066],[38.2048,50.0011],[38.2049,49.997],[38.2165,49.9875],[38.2169,49.9831],[38.2218,49.9791],[38.1956,49.9693],[38.1977,49.9621],[38.1622,49.9513],[38.171,49.9419],[38.1322,49.9246],[38.1246,49.9424],[38.0559,49.9232],[38.0458,49.9153],[38.033,49.9002],[38.0675,49.8655],[38.0936,49.8461],[38.0808,49.8383],[38.0738,49.8369],[38.0588,49.837],[38.0446,49.8393],[38.0183,49.8375],[38.0205,49.8348],[38.0097,49.813],[38.0294,49.8035],[38.0391,49.7957],[38.0556,49.7922],[38.0537,49.7835],[38.0362,49.7835],[38.0341,49.7779],[38.0236,49.7749],[38.0247,49.773],[38.0118,49.7658],[38.0102,49.7573],[37.9985,49.7532],[37.9895,49.7531],[37.9877,49.7553],[37.9838,49.7556],[37.9799,49.7657],[37.977,49.7674],[37.9681,49.7593],[37.9508,49.7312],[37.9599,49.7173],[37.9737,49.7086],[37.9911,49.716],[37.9974,49.7135],[38.0087,49.715],[38.0173,49.7139],[38.0181,49.7055],[38.0004,49.7005],[38.0074,49.6955],[38.0138,49.6958],[38.0148,49.6861],[38.0112,49.6846],[38.0155,49.6825],[38.0154,49.679],[38.0123,49.6786],[38.0127,49.6774],[38.0196,49.6769],[38.0225,49.6719],[38.0309,49.6677],[38.0312,49.6654],[38.0278,49.6627],[38.0342,49.6593],[38.0371,49.6624],[38.0472,49.6575],[37.9982,49.6486],[37.9861,49.6435],[37.9895,49.6395],[37.9898,49.6354],[37.9966,49.6324],[37.9972,49.6282],[37.9791,49.626],[37.975,49.6126],[37.9447,49.6116],[37.9416,49.5955],[37.9407,49.5944],[37.9353,49.5944],[37.9378,49.5854],[37.9523,49.5746],[37.9539,49.5694],[37.9241,49.57],[37.9229,49.5678],[37.9044,49.5707],[37.9014,49.5733],[37.8846,49.549],[37.9282,49.5481],[37.927,49.5416],[37.9178,49.5335],[37.9056,49.5295],[37.8826,49.5186],[37.8471,49.5203],[37.8421,49.5076],[37.8455,49.5024],[37.8389,49.4934],[37.8512,49.4872],[37.8447,49.4459],[37.8762,49.4465],[37.8747,49.4364],[37.8805,49.4358],[37.8773,49.4185],[37.8797,49.4165],[37.8769,49.4134],[37.8794,49.4128],[37.8821,49.4146],[37.8964,49.4036],[37.8846,49.3514],[37.8871,49.3418],[37.8839,49.3416],[37.8769,49.3278],[37.8837,49.3191],[37.8832,49.3129],[37.946,49.303],[37.9585,49.2847],[37.9451,49.2808],[37.9134,49.2772],[37.8985,49.2701],[37.911,49.2592],[37.8948,49.256],[37.896,49.2528],[37.8796,49.2478],[37.8658,49.2458],[37.8744,49.2339]]]}},{"type":"Feature","properties":{"name":"Donetsk Oblast"},"geometry":{"type":"Polygon","coordinates":[[[36.7389,48.6259],[36.7453,48.5965],[36.7787,48.6005],[36.7885,48.5668],[36.8244,48.57],[36.825,48.5667],[36.8596,48.569],[36.8607,48.5647],[36.8664,48.5595],[36.8673,48.5548],[36.8721,48.5502],[36.8831,48.551],[36.8848,48.5418],[36.9016,48.5433],[36.9066,48.5208],[36.8891,48.5195],[36.8887,48.5211],[36.8503,48.5178],[36.8572,48.4872],[36.8298,48.4846],[36.837,48.4433],[36.8454,48.4437],[36.8483,48.4284],[36.8514,48.4241],[36.8496,48.4208],[36.8514,48.4172],[36.8496,48.416],[36.8424,48.4206],[36.837,48.4203],[36.8353,48.4171],[36.8305,48.4173],[36.8245,48.4144],[36.8259,48.4123],[36.8296,48.4126],[36.8303,48.4109],[36.8348,48.4103],[36.8328,48.4079],[36.8361,48.407],[36.8353,48.4054],[36.8206,48.4048],[36.8278,48.3694],[36.8199,48.3657],[36.8119,48.3685],[36.8164,48.3485],[36.8088,48.348],[36.8171,48.3126],[36.8712,48.3169],[36.8737,48.3056],[36.9121,48.309],[36.9369,48.1942],[36.9301,48.196],[36.9204,48.1937],[36.9147,48.1944],[36.9094,48.192],[36.9041,48.1933],[36.9055,48.188],[36.9023,48.1882],[36.9007,48.1911],[36.8974,48.1872],[36.8956,48.1912],[36.8934,48.1914],[36.8915,48.1863],[36.8946,48.185],[36.892,48.1825],[36.8943,48.1802],[36.8878,48.1772],[36.8832,48.1793],[36.8845,48.1827],[36.8798,48.1816],[36.8728,48.1839],[36.8965,48.0776],[36.8813,48.0635],[36.8818,48.0617],[36.8692,48.0627],[36.8671,48.0515],[36.8582,48.0521],[36.8545,48.0346],[36.8482,48.0357],[36.8446,48.0383],[36.8402,48.0383],[36.834,48.0352],[36.8268,48.0359],[36.8194,48.04],[36.8127,48.0405],[36.8076,48.0466],[36.8041,48.0478],[36.8052,48.052],[36.8035,48.053],[36.7942,48.0484],[36.7857,48.0513],[36.7827,48.0471],[36.7782,48.0488],[36.773,48.0475],[36.7726,48.0499],[36.7636,48.0556],[36.7614,48.0549],[36.7607,48.052],[36.7573,48.0519],[36.7549,48.0495],[36.7436,48.0504],[36.7437,48.0524],[36.741,48.0534],[36.7421,48.0581],[36.7434,48.06],[36.7479,48.061],[36.7469,48.0643],[36.7389,48.0656],[36.7397,48.0686],[36.7311,48.0688],[36.7265,48.0711],[36.7241,48.0764],[36.7256,48.0794],[36.7221,48.0806],[36.7186,48.0847],[36.7149,48.0846],[36.7138,48.0802],[36.7109,48.0798],[36.6935,48.0862],[36.6831,48.086],[36.6763,48.0905],[36.6684,48.0909],[36.6634,48.0876],[36.6614,48.0913],[36.6553,48.0946],[36.658,48.0983],[36.6534,48.1002],[36.6508,48.0994],[36.6501,48.0956],[36.6444,48.0968],[36.636,48.0943],[36.641,48.0914],[36.6446,48.0938],[36.649,48.0932],[36.6506,48.0881],[36.6473,48.0897],[36.6437,48.0874],[36.64,48.0894],[36.636,48.0876],[36.6293,48.0892],[36.6283,48.0866],[36.6324,48.0868],[36.6326,48.0848],[36.6299,48.0835],[36.6283,48.0856],[36.6261,48.0855],[36.6226,48.082],[36.6174,48.0863],[36.6023,48.091],[36.6002,48.0885],[36.604,48.0855],[36.5949,48.0824],[36.5864,48.0828],[36.5878,48.08],[36.5858,48.0782],[36.5826,48.08],[36.5801,48.0796],[36.5812,48.0774],[36.587,48.0758],[36.5847,48.0722],[36.5872,48.0649],[36.578,48.0619],[36.5795,48.0601],[36.5823,48.06],[36.5873,48.0524],[36.5739,48.04],[36.585,48.0311],[36.5908,48.0202],[36.5684,48.0118],[36.5716,48.0098],[36.5733,48.0112],[36.5772,48.01],[36.5862,48.001],[36.5861,47.9995],[36.5805,48.0001],[36.5765,47.9979],[36.5851,47.9566],[36.6288,47.9618],[36.6402,47.9203],[36.618,47.9175],[36.5955,47.9214],[36.5898,47.9212],[36.5925,47.9108],[36.542,47.906],[36.5493,47.8774],[36.5766,47.8802],[36.5848,47.8474],[36.6047,47.8508],[36.6084,47.8408],[36.5993,47.8178],[36.5885,47.8165],[36.5876,47.7854],[36.5938,47.784],[36.6713,47.7936],[36.6857,47.7309],[36.7,47.7325],[36.7134,47.6789],[36.7916,47.6849],[36.7903,47.6837],[36.792,47.681],[36.7842,47.68],[36.7807,47.677],[36.7805,47.6751],[36.7845,47.6735],[36.7794,47.6703],[36.7787,47.668],[36.7746,47.6696],[36.7761,47.6662],[36.7747,47.6651],[36.7689,47.6663],[36.7689,47.6679],[36.7534,47.6668],[36.7523,47.6642],[36.7544,47.6645],[36.7548,47.662],[36.7183,47.6588],[36.7252,47.6311],[36.7658,47.6341],[36.7662,47.6234],[36.7453,47.6217],[36.7481,47.6066],[36.7649,47.6078],[36.7621,47.6031],[36.7631,47.6006],[36.7646,47.6008],[36.8303,47.6242],[36.8934,47.5449],[36.9443,47.5761],[36.9668,47.5534],[36.9801,47.5607],[37.0016,47.5389],[37.021,47.5528],[37.0742,47.4937],[37.0781,47.4917],[37.0843,47.4961],[37.1289,47.4698],[37.1274,47.4687],[37.1289,47.4677],[37.1577,47.4549],[37.1798,47.4837],[37.196,47.4789],[37.19,47.469],[37.2068,47.4688],[37.2083,47.467],[37.2114,47.4667],[37.2115,47.4688],[37.2136,47.4695],[37.245,47.4691],[37.2396,47.4597],[37.2484,47.4568],[37.2368,47.4368],[37.232,47.4378],[37.1946,47.3734],[37.2034,47.3558],[37.162,47.3414],[37.146,47.3811],[37.1066,47.376],[37.1222,47.3404],[37.0923,47.3301],[37.0951,47.326],[37.0832,47.3218],[37.0829,47.3176],[37.0805,47.3174],[37.0837,47.3147],[37.0361,47.3],[37.034,47.309],[37.0289,47.3108],[37.0265,47.3148],[36.9466,47.311],[36.9442,47.3206],[36.926,47.3194],[36.9364,47.2871],[36.9452,47.2405],[36.9491,47.2282],[36.9557,47.229],[36.9626,47.2017],[36.9313,47.2006],[36.9309,47.207],[36.8941,47.2059],[36.8918,47.2],[36.8546,47.1991],[36.8574,47.1976],[36.856,47.194],[36.8578,47.1923],[36.86,47.1925],[36.8592,47.1894],[36.8633,47.1877],[36.8643,47.1854],[36.8702,47.1843],[36.876,47.1811],[36.8789,47.1755],[36.8815,47.1746],[36.8848,47.177],[36.8864,47.1767],[36.8862,47.1729],[36.8885,47.1708],[36.8996,47.1739],[36.9026,47.1697],[36.9098,47.1651],[36.9121,47.1666],[36.9143,47.1658],[36.9183,47.171],[36.9241,47.1704],[36.9225,47.1606],[36.9367,47.1655],[36.9368,47.1614],[36.9404,47.1573],[36.9457,47.1601],[36.9495,47.1587],[36.9504,47.1549],[36.9547,47.1535],[36.9546,47.1496],[36.9618,47.1488],[36.9638,47.1449],[36.9738,47.1399],[36.9703,47.1357],[36.9799,47.1308],[36.979,47.1273],[36.9835,47.1244],[36.9882,47.1258],[36.9926,47.124],[36.998,47.1296],[37.0022,47.1272],[37.0027,47.121],[36.9998,47.1144],[37.0059,47.113],[37.0095,47.1141],[37.0108,47.1106],[37.0093,47.1065],[37.002,47.1009],[37.006,47.0975],[37.0109,47.0985],[37.0086,47.0922],[37.0128,47.0894],[37.0084,47.0845],[36.9985,47.0836],[36.9854,47.0798],[37.0812,47.0475],[37.0865,47.0525],[37.0987,47.0592],[37.1249,47.0391],[37.0893,47.0075],[37.1411,46.982],[37.1027,46.96],[37.0923,46.9684],[37.0214,46.9279],[37.0336,46.9175],[37.0625,46.884],[37.1687,46.7104],[37.1959,46.7013],[37.2286,46.6938],[37.2797,46.688],[37.3314,46.6893],[37.3653,46.6939],[37.3979,46.7016],[37.4376,46.7158],[37.6201,46.8299],[38.1409,46.861],[38.3381,46.9808],[38.2285,47.1226],[38.2291,47.1272],[38.2362,47.1396],[38.2359,47.1986],[38.234,47.2038],[38.2372,47.2083],[38.241,47.21],[38.2428,47.2178],[38.2403,47.2187],[38.2403,47.2217],[38.2364,47.2254],[38.2339,47.2258],[38.2329,47.229],[38.2386,47.2326],[38.2543,47.2339],[38.2603,47.2383],[38.2882,47.2385],[38.288,47.2568],[38.3245,47.257],[38.3316,47.2636],[38.3293,47.267],[38.3335,47.2692],[38.3308,47.2759],[38.3265,47.2771],[38.3271,47.2798],[38.3228,47.2815],[38.3281,47.2854],[38.3331,47.2927],[38.3335,47.2966],[38.327,47.2978],[38.327,47.2995],[38.3346,47.3027],[38.336,47.3063],[38.2209,47.3054],[38.2211,47.3271],[38.227,47.3302],[38.2225,47.3331],[38.2304,47.3386],[38.2319,47.3443],[38.2393,47.3461],[38.2462,47.3507],[38.2465,47.3542],[38.2493,47.3568],[38.245,47.3637],[38.2573,47.3732],[38.2865,47.3734],[38.2865,47.3914],[38.3006,47.3915],[38.3024,47.3928],[38.302,47.475],[38.2884,47.4761],[38.286,47.4835],[38.2885,47.4888],[38.292,47.4905],[38.29,47.499],[38.2938,47.5022],[38.2916,47.5058],[38.2934,47.5081],[38.2849,47.509],[38.2847,47.5443],[38.3051,47.5448],[38.3073,47.5465],[38.3061,47.5483],[38.3113,47.5536],[38.3108,47.5761],[38.3507,47.5762],[38.3505,47.6166],[38.4568,47.6171],[38.4565,47.644],[38.6164,47.6446],[38.6261,47.6535],[38.6297,47.6534],[38.6293,47.6694],[38.666,47.6693],[38.6658,47.6987],[38.7349,47.6996],[38.7355,47.6946],[38.7299,47.6912],[38.7341,47.6874],[38.7377,47.6877],[38.7397,47.6851],[38.7356,47.6826],[38.7366,47.6801],[38.7432,47.6807],[38.7469,47.6864],[38.7508,47.6845],[38.7535,47.6865],[38.7551,47.6853],[38.7726,47.6855],[38.7726,47.7137],[38.7708,47.7175],[38.773,47.7178],[38.7731,47.7193],[38.7702,47.7211],[38.7775,47.7357],[38.7798,47.7372],[38.789,47.7375],[38.7891,47.7686],[38.7933,47.7687],[38.7925,47.7723],[38.7965,47.7737],[38.796,47.7765],[38.789,47.7783],[38.7931,47.7844],[38.7865,47.7846],[38.7839,47.788],[38.784,47.7917],[38.7905,47.7964],[38.7889,47.8159],[38.8288,47.8159],[38.8288,47.8233],[38.8324,47.8267],[38.8289,47.8279],[38.8285,47.8319],[38.8253,47.8354],[38.8262,47.8457],[38.8298,47.8499],[38.8361,47.8497],[38.8384,47.8514],[38.8426,47.8514],[38.843,47.8653],[38.8776,47.8671],[38.879,47.876],[38.8906,47.8743],[38.8918,47.873],[38.8938,47.8744],[38.8983,47.8743],[38.8992,47.8729],[38.9035,47.8724],[38.9091,47.8729],[38.9124,47.8756],[38.9146,47.8743],[38.9274,47.8731],[38.9414,47.8733],[38.9556,47.8694],[39.0745,47.8695],[39.0652,47.896],[39.0914,47.941],[39.084,47.9409],[39.0738,47.9529],[39.0696,47.95],[39.0665,47.9513],[39.0656,47.9491],[39.057,47.9468],[39.0551,47.9503],[39.0507,47.9509],[39.053,47.9547],[39.0479,47.9539],[39.046,47.9562],[39.0385,47.9564],[39.0435,47.9887],[39.0398,48.0069],[38.8613,48.0148],[38.8541,48.0204],[38.8254,48.0298],[38.8214,48.0359],[38.8256,48.038],[38.8213,48.043],[38.8195,48.0424],[38.8127,48.0479],[38.8152,48.0509],[38.8213,48.0517],[38.8219,48.0573],[38.8315,48.0579],[38.8273,48.0606],[38.8305,48.0634],[38.8268,48.0657],[38.8298,48.0684],[38.8268,48.0692],[38.8293,48.0774],[38.8241,48.0743],[38.8179,48.0659],[38.8032,48.0703],[38.804,48.0713],[38.7995,48.0747],[38.8042,48.0784],[38.8087,48.078],[38.8175,48.0843],[38.8067,48.0883],[38.8204,48.1162],[38.8121,48.117],[38.8106,48.1191],[38.798,48.1189],[38.7896,48.1242],[38.7808,48.1259],[38.7801,48.1302],[38.7741,48.127],[38.7663,48.1322],[38.7657,48.1304],[38.7623,48.1323],[38.7567,48.1317],[38.7454,48.1346],[38.7373,48.1346],[38.7219,48.1393],[38.7168,48.142],[38.7151,48.1448],[38.7045,48.1449],[38.7024,48.1464],[38.7024,48.144],[38.6985,48.1453],[38.6974,48.1483],[38.6965,48.1455],[38.6894,48.1476],[38.6892,48.1504],[38.6937,48.1577],[38.6791,48.1569],[38.6663,48.1581],[38.6712,48.1641],[38.6406,48.1631],[38.6376,48.1613],[38.6025,48.1723],[38.6026,48.1754],[38.5981,48.18],[38.6038,48.1881],[38.6113,48.1909],[38.6115,48.1928],[38.6083,48.1946],[38.6108,48.1966],[38.6134,48.2043],[38.5986,48.2147],[38.5891,48.2274],[38.5886,48.2328],[38.5903,48.2344],[38.5883,48.2345],[38.5876,48.2383],[38.5896,48.2396],[38.5878,48.2431],[38.5912,48.2517],[38.5878,48.2582],[38.5747,48.2676],[38.567,48.2701],[38.5245,48.2727],[38.524,48.2785],[38.521,48.2786],[38.5211,48.273],[38.427,48.2783],[38.4261,48.2813],[38.4284,48.2843],[38.425,48.2881],[38.4295,48.2901],[38.4274,48.2905],[38.4282,48.2935],[38.4338,48.2972],[38.4333,48.2996],[38.428,48.3031],[38.4282,48.3083],[38.4346,48.3147],[38.4411,48.3165],[38.4394,48.3235],[38.437,48.3232],[38.4334,48.3393],[38.4564,48.3426],[38.4557,48.3468],[38.4637,48.3485],[38.4618,48.3502],[38.4636,48.352],[38.4698,48.3491],[38.472,48.3501],[38.471,48.3553],[38.4735,48.3561],[38.471,48.36],[38.4969,48.363],[38.4984,48.3656],[38.4888,48.3644],[38.4788,48.3674],[38.4729,48.3675],[38.4686,48.3791],[38.4534,48.3811],[38.4501,48.3759],[38.4366,48.3961],[38.4394,48.4175],[38.4323,48.4351],[38.4346,48.4377],[38.4332,48.4477],[38.4008,48.44],[38.4024,48.4347],[38.3823,48.4296],[38.3761,48.4415],[38.3715,48.443],[38.3608,48.4432],[38.3567,48.4412],[38.3512,48.4417],[38.3435,48.4379],[38.342,48.4386],[38.3114,48.4556],[38.32,48.4651],[38.2882,48.4767],[38.2963,48.4763],[38.2975,48.4784],[38.3037,48.4742],[38.305,48.4749],[38.3016,48.485],[38.3066,48.4847],[38.2976,48.491],[38.2985,48.4952],[38.3035,48.4945],[38.3068,48.4973],[38.312,48.4985],[38.3114,48.5058],[38.3201,48.5089],[38.285,48.5368],[38.2819,48.5352],[38.2762,48.5406],[38.2787,48.5415],[38.2735,48.5454],[38.2795,48.546],[38.2637,48.6367],[38.2289,48.634],[38.2258,48.6525],[38.2388,48.6548],[38.2389,48.6568],[38.2521,48.6578],[38.2536,48.6551],[38.2598,48.6553],[38.2593,48.6675],[38.2686,48.6689],[38.2672,48.6641],[38.2877,48.6652],[38.2832,48.6813],[38.3042,48.6835],[38.306,48.6821],[38.315,48.6847],[38.314,48.6869],[38.3073,48.6878],[38.3144,48.6958],[38.315,48.7045],[38.3065,48.7088],[38.3043,48.7123],[38.3253,48.7142],[38.3241,48.726],[38.3213,48.7317],[38.3156,48.7347],[38.2831,48.7373],[38.2675,48.7491],[38.263,48.7502],[38.2751,48.773],[38.2826,48.7738],[38.2788,48.8026],[38.3183,48.806],[38.3135,48.8283],[38.2727,48.8248],[38.2681,48.8362],[38.2597,48.8423],[38.2214,48.8396],[38.2289,48.8585],[38.2279,48.9368],[38.2174,48.9325],[38.1964,48.928],[38.1434,48.9323],[38.1392,48.9311],[38.1357,48.9249],[38.1311,48.9239],[38.1247,48.9266],[38.1174,48.9267],[38.1144,48.9317],[38.0954,48.9343],[38.0926,48.9391],[38.0631,48.9368],[38.0542,48.9397],[38.0469,48.9367],[38.0383,48.9253],[38.037,48.9434],[38.0052,48.9466],[38.0302,48.9742],[38.054,48.9649],[38.0524,48.9716],[38.0578,48.9757],[38.0509,48.9823],[38.0551,48.9865],[38.0804,48.9922],[38.0989,48.9923],[38.0979,48.9988],[38.073,49.0399],[38.0531,49.0589],[38.0617,49.0632],[38.068,49.0966],[38.0838,49.1345],[38.0816,49.148],[38.0669,49.1466],[38.0442,49.1505],[38.0404,49.1267],[37.9807,49.1306],[37.9749,49.1348],[37.9607,49.1358],[37.9563,49.1429],[37.9444,49.1391],[37.9265,49.1438],[37.8934,49.1605],[37.9027,49.1665],[37.8931,49.1747],[37.906,49.1806],[37.9072,49.1836],[37.914,49.1866],[37.935,49.1918],[37.9237,49.2059],[37.9197,49.2064],[37.9427,49.2141],[37.9333,49.2208],[37.9175,49.2154],[37.8903,49.2119],[37.8898,49.2189],[37.8734,49.2232],[37.8744,49.2339],[37.8617,49.2329],[37.8522,49.2224],[37.8498,49.2218],[37.847,49.2054],[37.8441,49.2044],[37.8434,49.2011],[37.8248,49.2028],[37.825,49.2063],[37.8109,49.2064],[37.798,49.209],[37.7978,49.2021],[37.7119,49.22],[37.6143,49.2333],[37.5973,49.23],[37.5691,49.2313],[37.5571,49.2236],[37.5492,49.213],[37.5286,49.207],[37.5131,49.1996],[37.5077,49.1909],[37.5028,49.1872],[37.5047,49.185],[37.5013,49.1804],[37.5086,49.1804],[37.5243,49.1764],[37.5434,49.1689],[37.5552,49.166],[37.5642,49.1493],[37.5631,49.1455],[37.5597,49.1449],[37.5509,49.149],[37.5416,49.1453],[37.5528,49.1406],[37.5629,49.1334],[37.5702,49.1354],[37.5846,49.1262],[37.547,49.1122],[37.4982,49.1038],[37.4953,49.1052],[37.4871,49.1001],[37.4956,49.0931],[37.5019,49.0923],[37.4995,49.089],[37.5071,49.081],[37.5075,49.0756],[37.5048,49.0701],[37.492,49.0656],[37.491,49.0628],[37.4798,49.0575],[37.4677,49.0551],[37.4654,49.0615],[37.4601,49.0562],[37.4582,49.0568],[37.4512,49.0532],[37.4503,49.0614],[37.4437,49.0572],[37.4377,49.0608],[37.4299,49.0602],[37.4178,49.0626],[37.4065,49.0518],[37.3952,49.0509],[37.385,49.0482],[37.3882,49.0391],[37.3854,49.0339],[37.3911,49.0256],[37.3757,49.0266],[37.3711,49.0049],[37.3727,48.9992],[37.3605,48.9985],[37.3449,49.0032],[37.3346,48.994],[37.3215,48.99],[37.3139,48.9897],[37.3132,48.9868],[37.3241,48.9851],[37.3231,48.9827],[37.3162,48.9836],[37.315,48.9771],[37.3131,48.9773],[37.3128,48.9803],[37.3099,48.9797],[37.307,48.9809],[37.3019,48.9762],[37.2972,48.9749],[37.2987,48.972],[37.2947,48.9712],[37.2955,48.9684],[37.3001,48.9668],[37.3085,48.9685],[37.3096,48.9666],[37.3045,48.9656],[37.3043,48.9637],[37.3106,48.957],[37.32,48.9573],[37.3204,48.9528],[37.3077,48.951],[37.3076,48.9455],[37.3109,48.9422],[37.321,48.938],[37.3268,48.9385],[37.3275,48.9419],[37.333,48.9409],[37.3274,48.937],[37.3293,48.9352],[37.3329,48.9352],[37.328,48.922],[37.3127,48.9229],[37.2992,48.9196],[37.2992,48.9229],[37.2694,48.9226],[37.2666,48.9063],[37.2451,48.9087],[37.2445,48.9065],[37.2226,48.9086],[37.2241,48.9043],[37.2135,48.8927],[37.2114,48.8879],[37.1982,48.8816],[37.1935,48.8814],[37.1892,48.8716],[37.1946,48.8495],[37.1921,48.8145],[37.1573,48.8245],[37.1511,48.8324],[37.1396,48.8326],[37.1459,48.8418],[37.138,48.8439],[37.1354,48.8426],[37.0988,48.851],[37.0783,48.8176],[37.0674,48.8174],[37.0664,48.8139],[37.0436,48.8151],[37.0238,48.8179],[37.0187,48.8018],[37.0075,48.8033],[37.005,48.7969],[36.9949,48.7874],[37.0231,48.7748],[37.023,48.7675],[37.0431,48.7663],[37.0359,48.7459],[37.031,48.7502],[37.0203,48.7556],[37.0175,48.76],[37.008,48.7654],[37.0016,48.7656],[36.999,48.7699],[36.9888,48.7748],[36.9757,48.7902],[36.9665,48.7934],[36.9459,48.7956],[36.9316,48.7925],[36.9214,48.7946],[36.921,48.7978],[36.8543,48.8003],[36.8392,48.7757],[36.8409,48.7727],[36.8209,48.7713],[36.8161,48.7775],[36.7879,48.7802],[36.7922,48.7858],[36.7834,48.7894],[36.7907,48.801],[36.7635,48.7971],[36.7346,48.8043],[36.7198,48.8057],[36.7054,48.7884],[36.6954,48.7791],[36.6893,48.7761],[36.6913,48.7704],[36.7091,48.7674],[36.7177,48.7447],[36.7122,48.7437],[36.7261,48.7143],[36.7356,48.7038],[36.7283,48.6928],[36.7256,48.6945],[36.7175,48.6944],[36.7117,48.6923],[36.7175,48.6901],[36.7192,48.6877],[36.7199,48.6835],[36.7155,48.6796],[36.7176,48.6775],[36.7164,48.6744],[36.7214,48.6731],[36.7254,48.6696],[36.7263,48.6662],[36.7217,48.6627],[36.7253,48.6621],[36.7304,48.6568],[36.7228,48.6535],[36.7276,48.6522],[36.7289,48.6473],[36.7341,48.6465],[36.7389,48.6259]]]}},{"type":"Feature","properties":{"name":"Zaporizhia Oblast"},"geometry":{"type":"Polygon","coordinates":[[[35.468,46.1465],[35.4819,46.1566],[35.5029,46.1756],[35.5201,46.1963],[35.5307,46.2137],[35.5549,46.2327],[35.5819,46.2628],[35.6189,46.275],[35.6476,46.2883],[35.6853,46.3128],[35.7063,46.3317],[35.7204,46.3483],[35.7671,46.3631],[35.7958,46.3763],[35.8217,46.3921],[35.8444,46.41],[35.8674,46.3827],[35.8918,46.362],[35.9201,46.3439],[35.9517,46.3285],[35.986,46.3162],[36.004,46.3113],[36.0413,46.3042],[36.0796,46.3006],[36.1182,46.3006],[36.1565,46.3042],[36.1937,46.3115],[36.2291,46.3221],[36.246,46.3287],[36.2775,46.3441],[36.2921,46.3529],[36.3185,46.3724],[36.3407,46.3942],[36.3585,46.4179],[36.4086,46.4393],[36.4463,46.4637],[36.4763,46.4927],[36.4915,46.5141],[36.4988,46.5282],[36.5457,46.5357],[36.5741,46.5124],[36.6141,46.4899],[36.6598,46.4732],[36.7093,46.4629],[36.7608,46.4595],[36.7953,46.4611],[36.8291,46.4657],[36.8775,46.4784],[36.9074,46.4903],[36.9347,46.5048],[36.9591,46.5216],[36.9801,46.5405],[36.9973,46.5611],[37.0104,46.583],[37.0193,46.6059],[37.0242,46.6389],[37.0645,46.6617],[37.0979,46.6899],[37.1334,46.698],[37.1687,46.7104],[37.0625,46.884],[37.0336,46.9175],[37.0214,46.9279],[37.0923,46.9684],[37.1027,46.96],[37.1411,46.982],[37.0893,47.0075],[37.1249,47.0391],[37.0987,47.0592],[37.0865,47.0525],[37.0812,47.0475],[36.9854,47.0798],[36.9985,47.0836],[37.0084,47.0845],[37.0128,47.0894],[37.0086,47.0922],[37.0109,47.0985],[37.006,47.0975],[37.002,47.1009],[37.0093,47.1065],[37.0108,47.1106],[37.0095,47.1141],[37.0059,47.113],[36.9998,47.1144],[37.0027,47.121],[37.0022,47.1272],[36.998,47.1296],[36.9926,47.124],[36.9882,47.1258],[36.9835,47.1244],[36.979,47.1273],[36.9799,47.1308],[36.9703,47.1357],[36.9738,47.1399],[36.9638,47.1449],[36.9618,47.1488],[36.9546,47.1496],[36.9547,47.1535],[36.9504,47.1549],[36.9495,47.1587],[36.9457,47.1601],[36.9404,47.1573],[36.9368,47.1614],[36.9367,47.1655],[36.9225,47.1606],[36.9241,47.1704],[36.9183,47.171],[36.9143,47.1658],[36.9121,47.1666],[36.9098,47.1651],[36.9026,47.1697],[36.8996,47.1739],[36.8885,47.1708],[36.8862,47.1729],[36.8864,47.1767],[36.8848,47.177],[36.8815,47.1746],[36.8789,47.1755],[36.876,47.1811],[36.8702,47.1843],[36.8643,47.1854],[36.8633,47.1877],[36.8592,47.1894],[36.86,47.1925],[36.8578,47.1923],[36.856,47.194],[36.8574,47.1976],[36.8546,47.1991],[36.8918,47.2],[36.8941,47.2059],[36.9309,47.207],[36.9313,47.2006],[36.9626,47.2017],[36.9557,47.229],[36.9491,47.2282],[36.9452,47.2405],[36.9364,47.2871],[36.926,47.3194],[36.9442,47.3206],[36.9466,47.311],[37.0265,47.3148],[37.0289,47.3108],[37.034,47.309],[37.0361,47.3],[37.0837,47.3147],[37.0805,47.3174],[37.0829,47.3176],[37.0832,47.3218],[37.0951,47.326],[37.0923,47.3301],[37.1222,47.3404],[37.1066,47.376],[37.146,47.3811],[37.162,47.3414],[37.2034,47.3558],[37.1946,47.3734],[37.232,47.4378],[37.2368,47.4368],[37.2484,47.4568],[37.2396,47.4597],[37.245,47.4691],[37.2136,47.4695],[37.2115,47.4688],[37.2114,47.4667],[37.2083,47.467],[37.2068,47.4688],[37.19,47.469],[37.196,47.4789],[37.1798,47.4837],[37.1577,47.4549],[37.1289,47.4677],[37.1274,47.4687],[37.1289,47.4698],[37.0843,47.4961],[37.0781,47.4917],[37.0742,47.4937],[37.021,47.5528],[37.0016,47.5389],[36.9801,47.5607],[36.9668,47.5534],[36.9443,47.5761],[36.8934,47.5449],[36.8303,47.6242],[36.7646,47.6008],[36.7631,47.6006],[36.7621,47.6031],[36.7649,47.6078],[36.7481,47.6066],[36.7453,47.6217],[36.7662,47.6234],[36.7658,47.6341],[36.7252,47.6311],[36.7183,47.6588],[36.7548,47.662],[36.7544,47.6645],[36.7523,47.6642],[36.7534,47.6668],[36.7689,47.6679],[36.7689,47.6663],[36.7747,47.6651],[36.7761,47.6662],[36.7746,47.6696],[36.7787,47.668],[36.7794,47.6703],[36.7845,47.6735],[36.7805,47.6751],[36.7807,47.677],[36.7842,47.68],[36.792,47.681],[36.7903,47.6837],[36.7916,47.6849],[36.7134,47.6789],[36.7,47.7325],[36.6857,47.7309],[36.6713,47.7936],[36.5938,47.784],[36.5876,47.7854],[36.5885,47.8165],[36.5993,47.8178],[36.6084,47.8408],[36.6047,47.8508],[36.5848,47.8474],[36.5209,47.8365],[36.5229,47.8288],[36.4695,47.824],[36.4491,47.8241],[36.4218,47.8289],[36.4119,47.8277],[36.3978,47.8309],[36.3767,47.83],[36.3744,47.838],[36.3241,47.8395],[36.3231,47.8356],[36.3305,47.8307],[36.3295,47.8273],[36.3322,47.8259],[36.3283,47.8229],[36.3302,47.8203],[36.2986,47.8159],[36.2982,47.8177],[36.2755,47.8155],[36.2738,47.8234],[36.2662,47.8332],[36.1976,47.8325],[36.1932,47.8381],[36.1895,47.8371],[36.1882,47.8415],[36.1944,47.849],[36.1974,47.8569],[36.1958,47.8594],[36.1772,47.8572],[36.1788,47.8507],[36.1017,47.8426],[36.1002,47.8485],[36.0959,47.8501],[36.0737,47.8488],[36.0686,47.8675],[36.0575,47.8683],[36.0541,47.88],[36.0808,47.8832],[36.0872,47.8612],[36.1192,47.8648],[36.1169,47.8709],[36.1302,47.8903],[36.1225,47.9002],[36.1277,47.9019],[36.1104,47.9246],[36.1197,47.9279],[36.1087,47.9418],[36.085,47.9303],[36.0736,47.9652],[36.0516,47.9586],[36.0479,47.9655],[36.0707,47.9715],[36.0662,47.9821],[36.062,48.001],[36.0416,48.0039],[36.0344,48.0187],[36.0655,48.0252],[36.0561,48.0461],[36.0582,48.0465],[36.0525,48.0591],[35.9753,48.0432],[35.978,48.0515],[35.9826,48.0568],[35.9879,48.0571],[35.9885,48.0584],[35.9807,48.0634],[35.9752,48.0594],[35.972,48.0599],[35.9742,48.0665],[35.9694,48.0731],[35.977,48.078],[35.984,48.0782],[35.9855,48.0846],[35.984,48.0866],[35.9761,48.0863],[35.9754,48.0923],[35.9666,48.0948],[35.9206,48.0821],[35.8169,48.0661],[35.8061,48.1006],[35.7947,48.0963],[35.7832,48.0942],[35.7762,48.0967],[35.7582,48.0986],[35.756,48.0984],[35.7566,48.0964],[35.7428,48.0957],[35.7034,48.1402],[35.5931,48.0983],[35.5237,48.0744],[35.5188,48.0949],[35.508,48.0977],[35.4856,48.095],[35.4807,48.0974],[35.4794,48.0968],[35.4792,48.0981],[35.4745,48.0977],[35.4623,48.1017],[35.4497,48.1031],[35.4213,48.1002],[35.4205,48.1046],[35.4163,48.1097],[35.4047,48.1117],[35.4017,48.1147],[35.3944,48.1141],[35.383,48.12],[35.378,48.1181],[35.3763,48.1194],[35.3688,48.1192],[35.3657,48.121],[35.3534,48.1211],[35.3492,48.1232],[35.3435,48.1234],[35.3434,48.1245],[35.3385,48.1234],[35.3326,48.1281],[35.295,48.1443],[35.2739,48.1441],[35.2654,48.142],[35.254,48.1361],[35.2419,48.1347],[35.2197,48.1427],[35.2097,48.1401],[35.1945,48.1404],[35.179,48.1311],[35.1637,48.1288],[35.1017,48.1316],[35.0848,48.1234],[35.0646,48.1224],[35.0579,48.1205],[35.0447,48.1081],[35.0389,48.0984],[35.02,48.097],[35.0147,48.0947],[34.9963,48.0919],[34.9903,48.0892],[34.9856,48.0966],[34.9297,48.0903],[34.9301,48.0926],[34.9147,48.0909],[34.9104,48.1041],[34.9117,48.1137],[34.9201,48.1146],[34.9158,48.1306],[34.8813,48.1271],[34.8783,48.1338],[34.8551,48.133],[34.8757,48.0545],[34.8392,48.0505],[34.847,48.0139],[34.8583,48.0152],[34.8645,48.0016],[34.8695,47.9824],[34.9049,47.9857],[34.9125,47.9578],[34.9093,47.9574],[34.9137,47.9407],[34.9191,47.9335],[34.881,47.9289],[34.8764,47.942],[34.8492,47.9378],[34.8517,47.921],[34.802,47.9156],[34.8171,47.8643],[34.8283,47.8687],[34.8376,47.8699],[34.8503,47.8771],[34.8608,47.8805],[34.864,47.8794],[34.8708,47.8506],[34.8972,47.8528],[34.9034,47.8296],[34.8789,47.8184],[34.8936,47.7602],[34.9575,47.7696],[34.9649,47.7402],[34.9545,47.7391],[34.9575,47.7275],[34.9519,47.727],[34.956,47.7123],[34.9299,47.7116],[34.9382,47.6774],[34.9057,47.6739],[34.9161,47.6338],[34.9328,47.6358],[34.9417,47.6012],[34.9372,47.598],[34.9387,47.5946],[34.9344,47.5904],[34.9316,47.5916],[34.9318,47.5933],[34.9257,47.594],[34.9291,47.5898],[34.9345,47.5883],[34.936,47.5825],[34.9273,47.5814],[34.9275,47.5803],[34.9391,47.5805],[34.9459,47.5742],[34.9349,47.5695],[34.9362,47.5682],[34.9487,47.5721],[34.9569,47.5686],[34.9655,47.55],[34.958,47.5383],[34.9454,47.5296],[34.9292,47.5247],[34.8996,47.5182],[34.8763,47.515],[34.8623,47.5151],[34.8405,47.521],[34.8171,47.5308],[34.7963,47.537],[34.7355,47.5389],[34.6697,47.5557],[34.645,47.5598],[34.5884,47.5624],[34.5724,47.5616],[34.5281,47.5537],[34.4985,47.5436],[34.4781,47.5342],[34.4689,47.5321],[34.424,47.5302],[34.3457,47.5219],[34.3,47.5191],[34.2681,47.5089],[34.2342,47.4944],[34.2074,47.4883],[34.1395,47.4772],[34.17,47.4691],[34.2185,47.4527],[34.2301,47.446],[34.2427,47.4339],[34.253,47.4095],[34.2564,47.3942],[34.2529,47.3911],[34.26,47.3606],[34.2712,47.3622],[34.2834,47.3263],[34.2818,47.3241],[34.2826,47.3177],[34.293,47.2743],[34.2997,47.2722],[34.3023,47.273],[34.3053,47.2691],[34.3291,47.2907],[34.3576,47.2934],[34.3696,47.2836],[34.4012,47.2872],[34.3987,47.2984],[34.4188,47.3009],[34.4135,47.3233],[34.492,47.3323],[34.4984,47.335],[34.5004,47.3385],[34.5046,47.3401],[34.5121,47.3387],[34.5159,47.3362],[34.5162,47.3332],[34.5088,47.3277],[34.5086,47.3254],[34.5132,47.3244],[34.5147,47.3226],[34.5138,47.3181],[34.4794,47.3151],[34.4805,47.3078],[34.4878,47.2799],[34.5182,47.2835],[34.5236,47.2672],[34.5272,47.2674],[34.5301,47.2508],[34.4909,47.2468],[34.491,47.2406],[34.5195,47.1047],[34.5535,47.106],[34.5673,47.0245],[34.5917,47.0268],[34.5996,46.9918],[34.6175,46.9933],[34.6206,46.9882],[34.6238,46.9734],[34.6426,46.9741],[34.6543,46.9766],[34.681,46.9791],[34.6855,46.9559],[34.7362,46.9615],[34.7526,46.8795],[34.8047,46.8825],[34.8127,46.8336],[34.817,46.8289],[34.7581,46.8227],[34.7676,46.7809],[34.7501,46.7805],[34.7505,46.7579],[34.7352,46.7571],[34.735,46.7473],[34.6587,46.7403],[34.6613,46.7272],[34.6252,46.724],[34.6322,46.6876],[34.6808,46.692],[34.6836,46.6773],[34.6851,46.677],[34.7462,46.6832],[34.7563,46.627],[34.7128,46.6201],[34.7233,46.5815],[34.7483,46.5842],[34.7576,46.5493],[34.8912,46.5626],[34.895,46.5376],[34.8851,46.5367],[34.8904,46.5068],[34.9472,46.5125],[34.9484,46.5035],[34.9531,46.5038],[35.0222,46.4793],[35.0535,46.4816],[35.071,46.3798],[35.0675,46.3765],[35.0583,46.3755],[35.0659,46.3359],[35.0693,46.3302],[35.0673,46.329],[35.0735,46.2999],[35.0956,46.3017],[35.1282,46.3021],[35.1695,46.2944],[35.2274,46.2812],[35.2535,46.2711],[35.2781,46.2646],[35.3757,46.1945],[35.468,46.1465]]]}}]}